Name,Street,City,Post Code,Region,GEO,Email,CC,CVV,DOB 
Carl Copeland,951-2195 Sem St.,Melbourne,5417,VIC,"-68.17231, 178.40749",eu.placerat.eget@tinciduntnunc.ca,541 41346 82301 466,606,"Nov 16, 1966" 
Theodore Turner,271-1939 Libero Street,Sydney,4687,New South Wales,"-45.39199, 123.58058",Nulla.tempor.augue@consectetuer.com,455660 374163 4118,996,"Feb 23, 1952" 
Felix Hays,"P.O. Box 965, 1275 Metus. Av.",Swan Hill,5469,VIC,"-44.47729, 131.92079",sed.orci@metus.net,4916769778831,549,"Apr 21, 2007" 
Hunter Dominguez,"461-365 Magna, Avenue",Melville,1024,Western Australia,"-76.04274, 26.17173",Proin.sed.turpis@neceleifendnon.co.uk,453933 6265855635,803,"Sep 9, 1941" 
Raja Cervantes,Ap #315-355 Amet Road,Cessnock,9654,New South Wales,"-20.42024, 149.48725",lorem.vitae@sitamet.com,5352 6887 3792 2240,128,"Nov 20, 1961" 
Ralph Fisher,816-1104 Scelerisque Rd.,Brisbane,7683,QLD,"-13.26375, 120.53664",nunc@nectempusscelerisque.edu,541 49288 11428 912,511,"Jul 28, 1986" 
Eaton Woods,8328 Penatibus Avenue,Greater Hobart,6665,Tasmania,"31.32746, -56.25303",eu.lacus@dictumplacerataugue.co.uk,4929 240 84 6150,116,"Oct 24, 1959" 
Timothy Whitaker,"P.O. Box 915, 3286 Cras Av.",Ballarat,8514,Victoria,"-9.69717, 163.06673",a.ultricies@morbi.com,5470121556719858,484,"Feb 28, 1963" 
Judah Dudley,"P.O. Box 530, 427 Amet Road",Redlands,8841,Queensland,"-1.05131, -163.16799",condimentum.Donec@nislMaecenasmalesuada.ca,4594632234371,473,"Jul 24, 1976" 
Emerson Hensley,877-6995 Nulla. Ave,Orange,3643,NSW,"-71.92633, -86.46025",aliquet.sem.ut@habitantmorbi.co.uk,402400 7144633038,721,"Nov 18, 1946" 
Lucas Mason,2828 Elementum St.,Rockhampton,9859,Queensland,"-72.88116, 168.67664",tortor.Nunc@velvenenatis.edu,524 09227 92815 007,688,"Oct 20, 1966" 
Amir Savage,"831-8351 In, Avenue",Penrith,1577,NSW,"-25.69863, 175.21978",luctus.lobortis.Class@mollisnec.edu,4189 3655 3314 0366,243,"Sep 16, 1943" 
Malachi Potts,Ap #637-3855 Imperdiet Avenue,Port Augusta,3630,South Australia,"-79.49998, 92.49688",magna.Phasellus@arcuiaculis.org,4916636031760,692,"Jun 15, 1972" 
Brady Kennedy,746-3838 Odio Rd.,Armidale,6264,NSW,"38.31851, 133.79094",convallis@faucibusidlibero.net,5382931834300165,455,"Aug 25, 1987" 
Allen Forbes,"Ap #647-5835 Sed, Av.",Horsham,3768,Victoria,"40.17422, -163.39426",Morbi@in.ca,453281 635844 2588,485,"Jun 23, 2004" 
Clayton Horton,Ap #472-4269 Posuere Rd.,Port Lincoln,8124,SA,"-9.50445, -53.95109",magna.sed.dui@sedhendrerita.org,453969 804639 9203,500,"Jan 21, 1977" 
Leo Mcbride,1165 Aliquet St.,Rockingham,6011,WA,"-71.38949, 19.80212",Aliquam@sed.com,5474 2152 9869 5651,443,"Jan 8, 1982" 
Hoyt Bradford,"Ap #430-2546 Quis, Av.",Wanneroo,7908,WA,"56.79409, 172.31582",Cras@Maecenas.com,551366 311119 5339,327,"Mar 10, 1967" 
Reed Hopper,306-845 Per Ave,Caloundra,7445,Queensland,"-76.14191, 67.75812",odio.tristique@odio.org,4532074928062581,598,"Jul 21, 1958" 
Kyle Mathis,3337 Curabitur St.,Burnie,5811,TAS,"23.73074, 78.58009",Aenean.massa@Mauris.ca,5307897182137990,121,"Jul 10, 1991" 
Eric Williamson,839-9493 Donec Road,Wanneroo,5504,Western Australia,"-58.0754, 126.77918",Quisque.fringilla.euismod@egetmagna.co.uk,555551 314221 7835,871,"Oct 19, 2006" 
Eagan Lara,Ap #832-9453 Ipsum Street,Darwin,6964,Northern Territory,"74.14859, -159.6247",enim.Curabitur.massa@Etiamvestibulummassa.ca,4716700607697,433,"Aug 31, 2006" 
Alec Mckee,"P.O. Box 818, 7847 Aliquam Road",Traralgon,3621,VIC,"50.97186, -70.13727",enim.sit@amet.net,5307 5354 8925 5020,594,"Nov 5, 1980" 
Ciaran Barry,4157 Ipsum Ave,Wodonga,8024,Victoria,"-65.98886, -135.91062",nisi.nibh@nislsemconsequat.com,4916925434980,141,"Oct 7, 1959" 
Lee Douglas,6350 Nec St.,Armidale,1623,NSW,"10.82081, 55.77793",mattis@consequat.com,5397 9979 2601 0981,933,"Jul 4, 1965" 
Kane Warren,259-2325 Eleifend. St.,Greater Hobart,7660,TAS,"-80.56103, -137.94862",tempus@estacfacilisis.ca,4024007189414,805,"Nov 28, 2004" 
Valentine Berger,309-5610 Congue. Rd.,Liverpool,5766,New South Wales,"18.92111, 167.19766",arcu@Sedegetlacus.co.uk,4539891571617,221,"May 26, 1941" 
Yoshio Stuart,"7407 Tincidunt, Rd.",Goulburn,6769,New South Wales,"-48.73567, 170.69158",neque.Morbi@sedpede.net,5429614443682414,773,"Dec 28, 1989" 
Alan French,2213 Auctor St.,Broken Hill,7088,New South Wales,"24.2239, 152.18111",convallis.convallis.dolor@dictumPhasellus.com,4716531409917,321,"Nov 21, 2010" 
Demetrius Salazar,8907 Adipiscing St.,Horsham,5937,Victoria,"16.53463, -6.62712",In@duiinsodales.net,531359 8260223213,649,"May 28, 1970" 
Wayne Washington,"306-178 Dui, Road",Sydney,2002,New South Wales,"-36.07817, 175.38071",ac.fermentum.vel@laoreet.net,4716514003844,790,"Dec 21, 1967" 
Cairo Schroeder,5139 Hendrerit. Avenue,Tamworth,3246,New South Wales,"10.81088, -132.774",adipiscing@Seddiam.net,4532598183489626,909,"Jul 13, 2007" 
Amery Pugh,Ap #201-8136 Senectus Rd.,Mount Isa,2761,Queensland,"-3.13868, -74.64458",non@Integerid.co.uk,4539 911 09 0317,137,"Jun 7, 1936" 
Jelani Frazier,"669-3329 Placerat, Av.",Bendigo,6810,VIC,"33.20708, 157.17444",massa@est.com,5425938934514123,766,"Jun 27, 1965" 
Dalton Hale,187-611 Sed Av.,Darwin,5357,NT,"-86.191, -115.65205",mauris@vitaeeratvel.org,4024007134865,593,"Mar 15, 2008" 
Amal Schwartz,"Ap #132-486 Lorem, Rd.",Adelaide,9457,SA,"67.18024, 54.30745",non.luctus@orciluctus.org,5124350600490394,300,"Aug 5, 1946" 
Dante Rodriquez,"P.O. Box 587, 2123 Molestie Av.",Gold Coast,6369,Queensland,"64.0902, 2.58622",Proin.nisl.sem@posuerevulputate.net,4532524031091,553,"Aug 22, 2010" 
Dalton Delacruz,Ap #786-1482 Nullam St.,Murray Bridge,5142,SA,"-3.3153, 178.55783",consectetuer@tellusimperdietnon.edu,4816992644368502,574,"Mar 13, 1950" 
Jasper Travis,"P.O. Box 688, 337 Risus St.",Gold Coast,1857,Queensland,"-68.38085, -140.97325",ut@duinec.edu,529049 1297217985,833,"Jan 18, 1975" 
Jin Romero,Ap #315-5842 Curabitur Street,Penrith,9079,New South Wales,"58.76052, 68.92881",non.lobortis@arcuiaculisenim.ca,4539829476145,188,"May 4, 1977" 
Reese Marshall,"P.O. Box 125, 5858 Tempus, Av.",Cairns,1861,Queensland,"-89.66094, -158.69664",egestas.lacinia@Duis.edu,523 40656 21667 906,558,"May 6, 1995" 
Brent Jennings,835-5339 Phasellus Road,Bathurst,7836,NSW,"-68.93368, 1.8984",lacus@lobortisrisus.com,491635 388255 0054,569,"Sep 7, 1972" 
Ethan Petersen,937-6133 Dolor Rd.,Canberra,7417,Australian Capital Territory,"-45.45113, -116.66432",nonummy@commodoat.com,4556690957668740,948,"May 10, 1997" 
Dalton Tanner,"3530 Amet, Ave",Whyalla,1984,South Australia,"-45.31888, -90.64722",Mauris.vel@Nam.com,475696 2443392989,512,"Aug 8, 1956" 
Gregory House,857-7850 Conubia Road,Redlands,2991,Queensland,"12.89153, 99.25654",velit.egestas@magnaPraesentinterdum.org,455636 846704 5333,899,"Aug 31, 1990" 
Armand Miranda,"963-5139 Aliquet, Rd.",Caloundra,1068,QLD,"40.63601, -119.67077",Donec.vitae@velmaurisInteger.co.uk,544 37404 47422 002,319,"Jan 1, 1980" 
Palmer Wooten,Ap #197-7407 Vel Avenue,Gold Coast,5606,QLD,"-81.77303, 139.31242",euismod.est.arcu@risus.com,460 60974 82692 999,809,"Jun 27, 1961" 
Lamar Galloway,Ap #496-6451 Ac Avenue,Sale,1513,VIC,"-87.6563, -99.39262",purus.ac@Nullamutnisi.co.uk,471 60047 94388 743,640,"Sep 25, 1956" 
Alec William,Ap #597-8922 Eros Av.,Bendigo,9288,Victoria,"-59.48611, 88.80435",libero.lacus@vitae.com,543854 6047946622,566,"May 10, 1957" 
Clinton West,205-5230 Cum Ave,Morwell,4322,VIC,"-25.70615, -92.35512",Sed@vitae.com,5461 4614 4384 0603,573,"Jan 23, 1981" 
Kennedy Sparks,Ap #984-8856 Egestas Street,Redlands,7628,Queensland,"2.04632, -171.09547",sem.elit@ullamcorperDuis.org,5512 5912 5834 1013,883,"Aug 6, 2012" 
Francis Jackson,Ap #112-8250 Neque. Road,Dubbo,3169,NSW,"-47.39174, -75.22147",varius.et@PraesentluctusCurabitur.org,4485217107655512,321,"May 19, 2015" 
Wesley Stafford,"P.O. Box 407, 9040 Suspendisse Rd.",Armidale,5137,New South Wales,"-50.12458, -56.02084",mollis@blanditmattisCras.edu,4485592490642,880,"Jan 3, 1972" 
Rafael Wiggins,"P.O. Box 646, 8386 Sit Road",Queanbeyan,3297,NSW,"-14.57164, -81.18442",id.risus.quis@consectetuerrhoncus.com,4024007176809,605,"Jan 17, 1956" 
Ciaran Harris,364-2788 Et Ave,Wangaratta,5582,VIC,"9.29421, 62.81768",egestas@pellentesqueSed.net,538122 377748 5141,559,"May 24, 1978" 
Walter Lynn,440-7784 Nulla Av.,Mackay,8475,QLD,"-4.58957, 168.08127",luctus@mienim.com,4024007157932,437,"Jan 18, 2006" 
Elton Carpenter,Ap #981-8922 Aliquet Street,Launceston,8502,TAS,"83.47029, 127.44109",adipiscing.ligula.Aenean@elit.ca,4556526073750006,387,"Mar 31, 1972" 
Colt Spears,9428 Tempor St.,Caloundra,8330,Queensland,"77.60791, -137.39318",blandit.at@erateget.net,4485901256783,749,"May 22, 2009" 
Matthew Conrad,1511 Dictum St.,Caloundra,5834,QLD,"81.56626, 6.15613",natoque.penatibus@Vestibulumut.org,4929675104208,211,"Dec 16, 2006" 
Roth Duran,8834 Urna Road,Melbourne,6704,VIC,"32.23096, 111.44871",amet.massa.Quisque@Maecenasmalesuadafringilla.net,5451361317077047,487,"Jul 1, 1941" 
Raja Hutchinson,"P.O. Box 825, 8487 Lectus Av.",Canberra,7196,ACT,"27.26833, -137.5552",malesuada@necdiam.edu,4916346185203,864,"Apr 27, 1937" 
Grant Mcpherson,Ap #320-4913 Sollicitudin St.,Blue Mountains,1847,New South Wales,"-9.01295, 132.15732",dolor.nonummy.ac@dolor.org,4929670337845,692,"Jun 7, 1940" 
Thomas Rodriguez,228-3016 Primis Rd.,Greater Hobart,4473,TAS,"74.01816, 104.90405",pede@ante.org,543766 148874 5770,511,"Oct 14, 2013" 
Kibo Gaines,"9091 Lorem, St.",Port Augusta,4596,South Australia,"57.32654, 43.41528",pulvinar.arcu@parturientmontes.ca,517102 6448039013,502,"May 24, 1938" 
Amery Lott,499-2865 Iaculis Avenue,Shepparton,6109,Victoria,"-82.83709, 62.68943",ut@Integeridmagna.net,4485 3066 7248 0503,533,"Mar 25, 1947" 
Justin Stephens,"P.O. Box 473, 8309 Velit. Street",Rockhampton,3430,QLD,"63.34694, 146.14684",rutrum.Fusce.dolor@rhoncus.co.uk,545374 8004199530,998,"Mar 3, 1962" 
Thor Morgan,"P.O. Box 819, 1979 Netus St.",Townsville,2807,Queensland,"63.74971, -83.53654",dictum.eleifend@lobortisnisi.edu,539056 715382 8376,836,"Jul 27, 2009" 
Honorato Casey,2521 Arcu. Av.,Geelong,9113,VIC,"37.79199, -75.20977",aliquet.sem@mollisnon.ca,448515 1172487693,783,"Aug 9, 1962" 
Mufutau Mathis,"325-7957 Non, Rd.",Morwell,4746,Victoria,"-11.91376, 126.56255",Fusce@Mauris.com,525800 7647242000,370,"Mar 3, 2012" 
Dale Decker,809-3679 Nam Av.,Redlands,9335,Queensland,"-76.45283, -130.31983",vitae.nibh.Donec@ipsumdolor.org,5382 4167 0852 0742,484,"Jul 17, 2000" 
Elmo Kelley,Ap #340-1774 Justo Av.,Newcastle,9303,New South Wales,"-43.7151, 153.3164",vel.quam@lobortis.net,471673 285254 2955,348,"Apr 23, 2006" 
Mannix Parker,Ap #506-4450 Nisi Road,Rockhampton,8603,Queensland,"-21.32352, -16.75217",Proin.vel.arcu@etnetus.com,533884 0313402712,675,"Feb 23, 2010" 
Otto Payne,"P.O. Box 980, 8261 Sit St.",Wangaratta,9491,VIC,"-65.54867, -113.97663",risus.at.fringilla@vehicularisus.com,542355 931628 5256,348,"Oct 15, 1949" 
Lyle Salas,Ap #220-8582 Interdum. Street,Orange,1737,NSW,"1.69553, 49.11829",natoque.penatibus.et@consectetuer.com,4916990945183,810,"Jan 20, 2010" 
Steven Guerrero,407-831 Sagittis Road,Dubbo,4657,New South Wales,"-22.34103, 173.52537",dolor.nonummy@rutrumlorem.edu,491666 5937403686,813,"Mar 11, 1978" 
Malachi Delaney,4788 Integer Ave,Bendigo,5463,VIC,"4.57846, 20.30394",lacinia@turpisnecmauris.ca,453 91576 16630 182,647,"Aug 15, 1958" 
Ulysses Day,"P.O. Box 301, 8627 Integer Road",Logan City,8279,QLD,"-24.38446, -124.26695",Aliquam.ornare@blanditat.co.uk,538 94453 06556 991,457,"Mar 17, 1976" 
Alexander Valenzuela,"P.O. Box 456, 3127 Velit. Road",Townsville,9153,QLD,"-36.4528, 74.55562",ac@Aliquam.net,542056 2624392924,382,"Sep 29, 1978" 
Omar Hutchinson,"P.O. Box 918, 9757 In St.",Shepparton,2944,VIC,"-9.19574, -131.16169",interdum.Curabitur@metus.edu,5432 8885 8552 4296,525,"Nov 28, 1953" 
Otto Graham,279-8551 Suspendisse Ave,Murray Bridge,7863,South Australia,"-36.32658, -96.9816",sagittis@euismod.org,4929233606231,357,"Aug 15, 1978" 
Kasimir Good,"P.O. Box 412, 7623 Magna Rd.",Dandenong,7898,Victoria,"-61.12529, -31.23843",nisi.nibh@purusgravidasagittis.edu,4485570401199,464,"Jun 4, 1940" 
Keefe Hatfield,204-4731 Enim St.,Redlands,9002,QLD,"-27.83906, -121.06602",placerat.augue@felis.co.uk,492932 870094 4791,905,"Apr 2, 1994" 
Adam Harvey,442-8518 Euismod Avenue,Devonport,6861,TAS,"-8.27025, -58.721",eu@ultricessit.co.uk,4539501582921,642,"May 13, 1999" 
Amery Kline,426 Pede St.,Cessnock,4402,NSW,"-2.64285, -145.89016",nibh@auguemalesuadamalesuada.net,4916676190914,854,"Jun 19, 2005" 
Victor Woodard,4759 Dolor St.,Shepparton,6488,VIC,"-27.19913, 123.39954",cursus@risusMorbi.co.uk,4929369511692,551,"Apr 7, 1985" 
Cruz Gray,307-699 Integer St.,Geelong,9792,VIC,"51.744, -42.61343",lacus@Phasellus.net,4532219338309342,734,"May 27, 1988" 
Darius Wooten,119-9097 Lectus Av.,Melton,4216,Victoria,"-66.60727, -70.73322",lorem@anteVivamusnon.net,4556070973869,678,"Oct 1, 1965" 
Brandon Evans,"P.O. Box 139, 7025 Risus. Rd.",Penrith,1638,NSW,"84.06802, -119.09881",dolor.dolor@vel.edu,4485 3353 8229 5372,623,"Oct 7, 1988" 
Jin Garcia,Ap #337-5070 Placerat Av.,Hamilton,2708,VIC,"28.71416, -178.62949",ornare.placerat.orci@nonarcu.co.uk,471672 158970 9870,362,"Apr 21, 2003" 
Craig Sparks,"P.O. Box 927, 2701 Quisque St.",Orange,8352,New South Wales,"-24.69201, -40.68866",libero.dui.nec@ornareFuscemollis.com,4532 323 01 5741,769,"Jul 17, 1954" 
Zahir Bell,388-3722 Nulla Street,Albury,6025,NSW,"-85.61989, -107.79053",Proin.eget.odio@ad.com,4929821318468674,501,"Feb 11, 2000" 
Curran Stuart,Ap #181-3081 Cum St.,Albany,1407,Western Australia,"16.02933, -175.54688",est.Mauris@arcuSedeu.edu,5443225943374972,838,"Aug 8, 1957" 
Steven Henry,186 Sed Street,Caloundra,8770,QLD,"-32.76334, 56.48507",venenatis.a.magna@ipsumprimis.com,4539819118905,228,"Feb 13, 1944" 
Brenden Cash,Ap #386-1567 Risus. Avenue,Liverpool,6946,New South Wales,"47.5404, 70.44543",Fusce.mollis.Duis@Quisquefringilla.com,523708 498126 1017,748,"Feb 16, 1951" 
Dexter Gallegos,"818-7142 Dui, Ave",Brisbane,3999,QLD,"-26.63292, 157.57579",est@commodohendrerit.co.uk,5420305862712589,874,"Dec 14, 1954" 
Felix Myers,3562 Erat Ave,Melton,9158,Victoria,"-11.13692, 49.21587",enim.Sed@a.com,5395 5760 9704 7840,642,"Mar 23, 1985" 
Brenden Marshall,3774 Malesuada Av.,Caloundra,3541,Queensland,"-77.49442, -40.23397",odio.auctor@ipsumcursus.com,5340 9563 8342 6096,189,"Oct 18, 1956" 
Kirk Newman,"Ap #994-7095 Eu, Avenue",Perth,4394,Western Australia,"31.26609, -81.8185",Curae@ligula.org,5272773941920672,535,"Mar 19, 1987" 
Lewis Hughes,"3405 Mauris, Avenue",Burnie,2029,Tasmania,"72.06625, -113.73283",malesuada@eteros.org,4485395380214,593,"Sep 22, 1941" 
Phillip Gallagher,"P.O. Box 894, 7647 Et, Rd.",Grafton,3632,NSW,"33.25159, 171.20718",Nulla.dignissim@id.com,552315 341572 3232,428,"Dec 31, 2007" 
Christopher Macdonald,Ap #747-2213 Non Rd.,Warrnambool,5803,Victoria,"-29.76309, 37.96409",dictum@malesuadafamesac.net,5535 4423 8583 6058,737,"Oct 10, 1958" 
Talon Melton,614-9439 Scelerisque Rd.,Devonport,2327,TAS,"34.46095, 10.50779",cursus.purus.Nullam@iaculisquispede.org,554589 8492366651,460,"Aug 24, 1972" 
Asher Glass,Ap #450-2080 Sodales. Ave,Moe,3894,Victoria,"-58.4541, -10.61005",arcu@facilisisSuspendissecommodo.org,4916145564029229,544,"Nov 19, 1943" 
Hamish Booth,6988 Sem Rd.,Liverpool,3546,NSW,"-1.29894, -144.30836",at.velit.Cras@turpisegestas.edu,5351427105014822,744,"Aug 23, 1964" 
Orson Nichols,"P.O. Box 828, 824 Risus Avenue",Parramatta,7901,NSW,"80.7986, -127.23076",bibendum@tortor.edu,522708 3134847195,544,"Oct 31, 1991" 
Lucas Sweeney,Ap #406-468 Senectus St.,Lithgow,5094,NSW,"-78.22986, -142.51462",commodo.hendrerit@habitantmorbi.ca,4556826035832631,445,"Dec 4, 1960" 
Marvin Ferrell,551-451 Molestie Rd.,Broken Hill,7176,New South Wales,"-11.38691, -105.75102",aliquet.diam.Sed@Vestibulum.ca,4556039203937,491,"Jan 9, 1941" 
Samuel Mills,"354-9304 Vel, St.",Frankston,1517,VIC,"56.45469, -91.00879",magna@urnaNullam.com,544693 975547 8146,147,"Apr 18, 2009" 
Demetrius Newman,8018 Ultrices Av.,Dandenong,5603,Victoria,"-40.00793, -73.19257",tellus.faucibus.leo@eu.com,5229895698168215,121,"Oct 14, 2009" 
Zachery Lyons,"P.O. Box 511, 4963 Ut Avenue",Cairns,4464,QLD,"-12.23747, -176.91544",ac.mattis@egestas.edu,491661 9612181802,205,"Sep 29, 2008" 
Eric Trevino,"P.O. Box 859, 7628 Aliquet Ave",Palmerston,1315,NT,"-45.98255, 129.39517",nascetur.ridiculus.mus@dictummi.co.uk,538565 801166 0973,816,"Jan 13, 1941" 
Jasper Perez,"P.O. Box 172, 9938 Interdum St.",Broken Hill,7991,NSW,"21.4928, -73.09602",eu.dolor.egestas@miac.edu,539 99902 28510 574,636,"Apr 4, 1997" 
Kennan Ramos,"P.O. Box 458, 1593 Arcu Avenue",Penrith,6198,NSW,"84.54088, -146.26017",a.felis.ullamcorper@idlibero.net,555760 958819 4666,337,"Nov 26, 1963" 
Finn Dudley,222 Tellus. Road,Logan City,4600,Queensland,"60.4976, -84.3717",dictum.augue@ullamcorpervelitin.org,521152 9222697130,272,"Mar 19, 1971" 
Roth Rivera,2949 Ante. Road,Subiaco,6401,WA,"-52.13092, -9.34153",ut.pharetra.sed@consequatdolorvitae.net,4986343011843,676,"Mar 28, 1938" 
Andrew Preston,1924 At Rd.,Whyalla,6912,South Australia,"-79.64732, 37.86299",turpis@per.edu,4024007153808,143,"Aug 8, 2007" 
Cruz Patterson,263-4681 Donec Rd.,Gold Coast,1177,QLD,"-30.63085, 125.38142",orci.Phasellus.dapibus@rhoncus.net,471 61512 00764 338,796,"Mar 13, 1956" 
Dalton Armstrong,"829-8572 Vitae, Road",Logan City,6989,QLD,"20.71073, -160.21761",placerat@nec.co.uk,556 34742 39269 165,817,"May 14, 1973" 
Kamal Chandler,Ap #671-8346 Cursus Av.,Cairns,1139,Queensland,"74.67658, 133.17923",Cras.vulputate.velit@aliquameuaccumsan.ca,4532074931294,364,"Nov 2, 1989" 
Coby Lewis,4459 A Av.,Ipswich,1964,QLD,"37.08593, -90.59147",lobortis.Class@fermentummetus.co.uk,5576756138516331,499,"Feb 20, 1950" 
Kermit Carney,"6901 Pharetra, Road",Charters Towers,3924,Queensland,"66.07502, 9.64432",pede.nec@mauriserateget.net,4024007185305,529,"Aug 8, 1972" 
Ezra Drake,932-8401 Conubia St.,Wangaratta,6245,Victoria,"-9.38952, -98.35589",Quisque@eueros.com,4556995043629600,428,"Aug 29, 1965" 
Paul Sparks,"P.O. Box 246, 9573 Interdum St.",Bairnsdale,3850,Victoria,"63.55164, -44.53453",nulla.Integer@dolorquam.co.uk,542 71604 23442 504,467,"Jul 13, 1938" 
Hu Snow,Ap #179-7399 Nibh Avenue,Geelong,4562,Victoria,"-13.15435, -62.68319",auctor.vitae.aliquet@egetmollis.org,548 61781 30077 056,359,"May 31, 1963" 
Clayton Hardy,"Ap #695-4606 Auctor, Rd.",Canning,3585,Western Australia,"-6.845, -93.95115",Mauris.quis.turpis@per.com,537 64748 30445 385,448,"Nov 4, 1981" 
Ian Summers,Ap #796-5620 Massa Avenue,Charters Towers,1900,Queensland,"38.8433, -169.11432",Quisque.nonummy.ipsum@atrisus.co.uk,4916945980186,238,"May 17, 1967" 
Xanthus Porter,"P.O. Box 311, 6304 Orci. Ave",Albury,9056,NSW,"-83.70454, 34.00896",ornare@sagittisaugue.co.uk,4358858993149153,707,"Nov 27, 1952" 
Cedric Curtis,"128-2730 Ut, Rd.",Greater Hobart,9522,TAS,"46.12509, 168.44344",egestas@vel.net,537703 874449 4885,827,"Apr 19, 2003" 
Allen Pratt,634-4440 Dapibus St.,Blue Mountains,8917,NSW,"51.93869, -173.77016",mauris.sit@dictumauguemalesuada.edu,4024007100171,134,"May 19, 1967" 
Thor Castaneda,"Ap #298-5588 Nec, Road",Wagga Wagga,3031,NSW,"-10.96386, -57.19846",blandit.mattis@sitamet.com,453986 358421 9938,925,"Oct 4, 1970" 
Cade Allen,590-2650 Quis Street,Bendigo,9301,Victoria,"-1.15719, 48.22605",magna.malesuada.vel@dapibusrutrumjusto.co.uk,453 90516 62537 245,770,"Oct 28, 1981" 
Lee Salazar,"P.O. Box 542, 2984 Iaculis Avenue",Ipswich,1364,Queensland,"86.73766, -85.82089",ullamcorper@massa.ca,527 18715 93310 167,661,"Jan 11, 1992" 
Jeremy Barnes,Ap #918-4254 In Ave,Broken Hill,2481,New South Wales,"-61.63964, 143.9752",parturient@Suspendissesed.org,492902 1634506691,612,"Oct 26, 2007" 
Porter Hunt,141-656 Dui St.,Dubbo,1428,NSW,"48.13892, 0.63795",Suspendisse.eleifend.Cras@Curabiturvellectus.edu,528184 0899947624,126,"Jun 17, 1989" 
Blake Landry,598-5027 Interdum Ave,Gold Coast,5941,Queensland,"-45.73911, -161.98355",turpis.nec.mauris@lectus.org,530888 830604 5879,358,"Aug 10, 1950" 
Tyrone Pitts,"P.O. Box 531, 5991 Nam Ave",Bathurst,6392,New South Wales,"3.67643, -97.42799",facilisi.Sed@odioEtiamligula.org,4811561259579,745,"May 10, 2012" 
Tanek Moreno,Ap #886-2377 Morbi Av.,Stirling,9363,Western Australia,"-53.52838, 169.33347",nascetur.ridiculus.mus@ametconsectetueradipiscing.edu,491 64205 33498 452,469,"May 14, 2009" 
Henry Weeks,853-3478 Quam. St.,Redcliffe,4968,QLD,"44.91488, 109.67279",blandit.mattis.Cras@vitaepurusgravida.edu,523826 383964 1658,657,"Mar 22, 1936" 
Chandler Jones,"Ap #481-4836 Enim, Rd.",Sydney,9915,New South Wales,"-85.32763, -4.88189",Donec.egestas@cursuseteros.co.uk,471629 259214 4950,425,"Nov 10, 1959" 
Chaney Wilcox,Ap #827-8831 Quam. Road,Broken Hill,1806,NSW,"-10.9185, -16.22636",velit@odioNaminterdum.net,4024007107103540,310,"Dec 25, 1950" 
Michael Velazquez,8760 Ligula Rd.,Frankston,3679,Victoria,"36.55694, 158.60604",neque@gravidanunc.org,4485170079262,561,"Apr 29, 1955" 
Tanek Rodriguez,562-5940 Velit. Rd.,Redlands,4923,Queensland,"54.94907, -30.33174",nec@vestibulum.net,530 77026 00079 156,259,"Aug 8, 1976" 
Price Cummings,Ap #200-9573 Nibh. Avenue,Cessnock,1136,NSW,"-6.88251, -31.72557",ultrices.Vivamus@vehiculaPellentesque.com,5185 0380 0922 6784,831,"Apr 11, 1939" 
Kibo Noble,"785-302 Non, Av.",Mount Gambier,8186,SA,"84.89919, 168.62708",sit.amet.ultricies@lobortisnisinibh.ca,5577316236242048,175,"Jul 4, 2012" 
Edan Dotson,"P.O. Box 441, 3685 Euismod Avenue",Whyalla,2228,SA,"37.48186, 21.30771",eros@consequat.co.uk,4804 340 76 1189,978,"Sep 18, 1978" 
Xanthus Hooper,196-9000 Dolor Avenue,Geelong,8421,Victoria,"60.751, -154.02756",est@et.ca,555985 711582 0109,987,"Dec 4, 1975" 
August Dale,"P.O. Box 948, 3624 Et, St.",Dandenong,2309,VIC,"0.28865, 74.27776",eu@vitae.net,4916002537325,604,"Jan 19, 2009" 
Derek Boyle,"P.O. Box 804, 5940 Mi St.",Grafton,4775,New South Wales,"43.37198, -22.66355",luctus.sit@molestie.ca,4539 5690 0513 7266,434,"Jan 4, 1965" 
Hamilton Chase,1326 In Av.,Melton,5732,Victoria,"-83.67259, -89.84264",malesuada.id.erat@felis.net,5344407012149473,277,"Aug 26, 1986" 
Allistair Pace,"P.O. Box 166, 7745 Magna. St.",Canning,9436,Western Australia,"59.70978, 148.02212",eu.enim@Phasellus.co.uk,515 55989 12028 326,679,"Oct 1, 1981" 
Dennis Sellers,Ap #351-2037 Id Avenue,Fremantle,3936,Western Australia,"35.41291, -83.61932",pretium.aliquet.metus@molestietellus.co.uk,4556897894348,319,"May 20, 1974" 
Mohammad Ellison,347-5184 Auctor Street,Grafton,8063,New South Wales,"-12.05219, 54.92641",bibendum.Donec.felis@sedsapienNunc.co.uk,5585 5639 9765 3992,896,"Feb 23, 1989" 
Mannix Rollins,360-8208 Dui. St.,Belgrave,2046,Victoria,"-59.81832, 38.66845",dictum@posuerecubiliaCurae.ca,4524200209239040,234,"Jun 19, 1981" 
Kermit Gilbert,3900 Luctus Ave,Ararat,7992,VIC,"-80.98472, 50.10505",ac@Aliquamornarelibero.ca,4539353244257,324,"Dec 24, 1994" 
Timon Hodge,125-1143 Arcu. Ave,Melville,7922,WA,"33.29225, 96.87063",consectetuer@mattisCraseget.co.uk,4704807322576,681,"Aug 26, 1966" 
Clark Alston,265-2304 Mattis St.,Brisbane,1188,Queensland,"19.13186, 55.6741",Curae@Pellentesquehabitantmorbi.net,491 69406 38799 686,202,"Jul 27, 1955" 
Igor Newton,Ap #607-5706 Per St.,Redlands,4514,QLD,"44.93054, -13.56877",non.luctus.sit@nondui.co.uk,532901 112556 3395,867,"Sep 13, 1984" 
Michael Weaver,Ap #896-5543 Tristique St.,Wanneroo,5300,WA,"47.66186, -20.131",non.enim.Mauris@loremfringillaornare.org,5472 8758 3725 5564,868,"Oct 9, 1979" 
John Hoffman,"P.O. Box 866, 891 Tincidunt Avenue",Traralgon,5749,VIC,"-79.73973, -110.90627",dui.nec@fermentumarcu.ca,4556612338977,236,"Oct 26, 1981" 
Armando Chapman,Ap #154-4226 Ridiculus Rd.,Orange,6690,New South Wales,"-16.75879, -103.08165",mollis.nec.cursus@netuset.com,549 34884 49564 814,827,"Dec 20, 2005" 
Francis Kaufman,Ap #481-5278 Faucibus Street,Wollongong,1297,New South Wales,"9.03163, 48.61162",eros.Proin@elementum.edu,4916445910915,566,"May 11, 1965" 
Eagan Calderon,"P.O. Box 174, 8371 Ultricies St.",Canning,9109,WA,"-23.58834, -98.27973",risus.varius@ullamcorpervelitin.edu,4532859526988,120,"Dec 15, 1957" 
Harrison Taylor,9055 Metus. Ave,Queanbeyan,2259,NSW,"-69.32515, 164.29532",Nam.nulla@Aenean.edu,4916417650663,866,"May 2, 2015" 
Holmes Ramirez,"P.O. Box 621, 9026 Mus. St.",Tamworth,8509,New South Wales,"70.45174, -159.31618",ipsum@magnisdis.co.uk,4556172067875,920,"Nov 12, 1989" 
Hoyt Lamb,722-5865 Nullam St.,Ararat,6917,Victoria,"31.43923, -138.56653",penatibus.et@odioauctorvitae.net,5171157374581585,631,"May 20, 1964" 
Kenyon Pate,8274 Neque Street,Queanbeyan,4442,NSW,"46.77123, -80.80414",tincidunt.vehicula@nectempus.com,540658 4022538997,291,"Mar 1, 2005" 
Nigel Brooks,Ap #224-9411 Blandit Avenue,Launceston,9547,Tasmania,"-49.48959, 149.01091",interdum.enim@fringillapurus.org,551 74706 53757 104,128,"Mar 2, 1987" 
Walter Turner,"P.O. Box 451, 4567 Tincidunt, Road",Bendigo,3035,Victoria,"39.3335, -56.51146",mollis@Sedauctor.co.uk,520 68342 40288 475,506,"Oct 8, 1935" 
Harrison Hall,"P.O. Box 599, 1381 Quis Street",Liverpool,1068,New South Wales,"-42.38135, -86.92815",ultrices@etrisus.ca,4916745421327177,170,"Mar 17, 2013" 
Thane Travis,"P.O. Box 153, 6423 Arcu. Avenue",Shepparton,8322,VIC,"-39.68522, -118.83087",nulla.Integer.urna@ametfaucibus.edu,453202 892487 3789,620,"Aug 23, 1971" 
Galvin Lang,Ap #305-3920 Per St.,Bundaberg,2063,QLD,"-11.61867, 176.17409",quis.accumsan.convallis@lectusrutrum.net,4556684830380,817,"Feb 14, 1997" 
Alec Wilkins,Ap #957-6137 Ut St.,Moe,9526,VIC,"28.18892, -175.39466",interdum.Sed.auctor@anteiaculis.net,4532216791390,351,"Feb 1, 2006" 
Amery Gay,9819 Lectus Ave,Cessnock,9211,NSW,"79.22912, 146.72651",montes@enimCurabitur.org,491607 618550 9325,281,"Dec 14, 2008" 
Hector Owens,857-1273 Donec Rd.,Port Lincoln,3245,South Australia,"77.99866, 154.60961",orci.lacus.vestibulum@dui.org,5170791701580349,281,"Feb 11, 1970" 
Chaney Browning,5329 Nonummy Rd.,Melbourne,9202,Victoria,"17.24608, 175.7111",odio@ornare.org,4485071407687,264,"Jul 20, 1990" 
Nigel Espinoza,"995-8791 Odio, Road",Albury,8117,New South Wales,"76.53881, 134.17444",Cum.sociis@velitegestas.net,531319 885322 0914,915,"Dec 25, 2003" 
Lester Whitney,"P.O. Box 799, 3808 Nisi. Road",Fremantle,2660,WA,"54.75562, -7.90016",ut.molestie@velarcu.org,5309534317517840,605,"Sep 8, 1946" 
Keegan Horn,Ap #324-3740 Quis Rd.,Benalla,4227,VIC,"34.307, 120.8819",Phasellus.libero.mauris@venenatisvel.org,4716253358267526,633,"Aug 20, 1964" 
Flynn Callahan,5654 Donec St.,Blue Mountains,5327,NSW,"66.91367, 97.40963",Ut@amagnaLorem.com,492916 671528 5515,191,"Apr 16, 1964" 
Hayes Dodson,6517 Mollis St.,Horsham,9497,Victoria,"9.16976, -127.10812",posuere.vulputate@vitae.com,463485 737777 6751,274,"Aug 29, 1975" 
Macaulay Brooks,Ap #313-116 Ipsum Avenue,Albury,9737,NSW,"59.51509, -144.16476",risus.Donec@actellus.co.uk,5448683724662707,512,"Oct 4, 1995" 
Acton Short,Ap #864-9280 Eu Av.,Grafton,3383,New South Wales,"-64.14996, -156.77428",ligula.eu.enim@nonenimMauris.edu,4485 8812 8801 4227,903,"Dec 31, 1953" 
Tyler Matthews,Ap #142-3375 Turpis Ave,Canberra,7794,Australian Capital Territory,"9.86461, -7.49361",nonummy.ipsum.non@ligulaNullamenim.com,526696 7306687847,811,"Jan 28, 1974" 
Finn Patel,"P.O. Box 181, 2378 Pharetra. Avenue",Perth,6830,WA,"-44.73185, 81.75375",pede@Namtempordiam.ca,4539 7038 6886 0165,516,"Mar 8, 1993" 
Harrison Hardy,597-4240 Integer St.,Frankston,2159,VIC,"-5.05781, 76.65081",nisl@sedpedenec.ca,548 03879 28773 943,792,"Mar 28, 1997" 
Merrill Hampton,Ap #396-1303 Sed Street,Wagga Wagga,4067,New South Wales,"60.47911, -36.79472",ac.metus@idblandit.net,4929914477787,651,"Sep 15, 1975" 
Raphael Stephens,1437 Risus Street,Horsham,7300,Victoria,"-32.80579, 28.61624",ac.risus.Morbi@Duiselementumdui.com,543153 5950814544,266,"Apr 1, 1995" 
Rogan Gonzales,Ap #822-7419 Volutpat. Rd.,Adelaide,7238,SA,"-43.23803, -158.77222",orci.lobortis.augue@auctorvelit.com,4539066328829075,907,"Jul 8, 1977" 
Linus Morris,137-966 Odio Ave,Horsham,5870,Victoria,"15.90674, 167.86279",In.faucibus.Morbi@metus.ca,5418 0068 3300 0963,167,"Jun 25, 2004" 
Valentine Neal,"Ap #873-8311 Dolor, Rd.",Brisbane,8790,QLD,"-51.74325, 49.44049",Sed.eu.eros@tristiquepharetraQuisque.ca,4532 9522 7619 7895,827,"Jan 10, 1996" 
Ashton Boyer,6358 Primis Road,Shepparton,9043,VIC,"80.12537, 115.00736",Aenean.sed.pede@lectus.org,520100 975744 8342,288,"Jan 30, 1965" 
Cyrus Rowland,152-861 Mi. Street,Sale,1546,Victoria,"20.70474, 58.33484",Quisque@semperdui.net,421829 217760 2946,329,"Jan 15, 2009" 
Clayton Townsend,336-7963 Aenean St.,Bendigo,3816,Victoria,"74.5369, 51.92148",velit@tinciduntDonecvitae.ca,5587019201782497,939,"Oct 25, 2009" 
Dante Kane,659-1323 Cras Road,Newcastle,3531,New South Wales,"19.85051, 85.55562",Cum@nisinibh.com,552 73181 48333 452,635,"Aug 24, 1973" 
Cameron Campos,3271 Iaculis Avenue,Port Pirie,4920,South Australia,"-57.12313, 36.90629",in@sit.org,471 68023 50030 082,718,"Feb 17, 1970" 
Neil Browning,423-3362 Ac Road,Charters Towers,2450,QLD,"16.77387, 152.60071",turpis.Aliquam.adipiscing@Pellentesqueut.com,529 45404 75581 673,434,"Oct 20, 1971" 
Richard Harvey,Ap #614-9157 Orci St.,Palmerston,9153,Northern Territory,"15.11223, 49.35068",lorem.vehicula@estcongue.org,4024007101773,279,"Jan 26, 1942" 
Reese Small,2861 Donec Rd.,Grafton,8472,New South Wales,"-51.73782, -166.16731",vestibulum.neque@accumsanconvallisante.co.uk,4848760119667,767,"Mar 8, 1940" 
Xander Cameron,"P.O. Box 440, 8310 Litora Rd.",Orange,6265,NSW,"-64.6965, 74.19631",consectetuer.cursus@Inlorem.ca,5335215937581105,786,"Apr 18, 1978" 
Fitzgerald Mullins,"P.O. Box 178, 4460 Tempor Av.",Maryborough,4919,QLD,"62.50609, 116.85578",Pellentesque@Sedpharetra.ca,514864 438484 9144,159,"Feb 14, 2003" 
Graham Casey,"Ap #974-5439 Nec, St.",Campbelltown,6259,NSW,"-82.27124, -30.05132",feugiat@elitdictum.ca,4929125089645,241,"Jul 12, 1954" 
Burke Sutton,"9265 Non, Rd.",Gladstone,4147,QLD,"61.21732, -94.7641",ac@dolornonummyac.ca,550854 758938 3153,349,"Jan 6, 2004" 
Hoyt Rhodes,8478 Diam Road,Sale,4230,Victoria,"-23.39896, 45.3653",ut.nulla@Aeneaneget.edu,5438 3060 9346 1129,274,"Feb 26, 1988" 
Troy Terry,4717 Habitant St.,Broken Hill,7578,NSW,"-35.13294, -126.20756",nascetur.ridiculus.mus@hendreritconsectetuercursus.edu,4301631476858,835,"Mar 16, 1955" 
Giacomo Ware,107-2718 Etiam Av.,Albury,4418,New South Wales,"-26.22097, 160.53913",sapien.imperdiet.ornare@maurisidsapien.ca,536 09423 45408 708,657,"Dec 15, 1972" 
Slade Padilla,"P.O. Box 167, 7614 Tristique St.",Albany,8128,Western Australia,"47.93968, -108.15063",justo.sit@risusDonec.com,530217 6276105253,398,"Aug 23, 1956" 
William Morin,Ap #405-9385 Faucibus. Ave,Penrith,8730,NSW,"89.24189, -103.50498",non@nequepellentesquemassa.co.uk,4929 8905 8860 6107,671,"Aug 3, 1939" 
Thor Cote,899-5369 Donec Road,Moe,8614,Victoria,"-38.41704, -90.61141",Praesent@idsapien.ca,5409255810538179,509,"Sep 18, 1973" 
Declan Hamilton,915-7629 In St.,Morwell,3647,VIC,"21.88847, 27.3308",imperdiet.non@augueeutellus.net,4680144071029,964,"Aug 1, 1959" 
Lev Fitzpatrick,Ap #610-307 Natoque Avenue,Warrnambool,3060,Victoria,"10.26134, 46.53121",semper.dui.lectus@Nuncmauris.com,4024 0071 1435 3054,834,"Feb 3, 1998" 
William Patton,961-5888 Primis St.,Bathurst,2034,NSW,"-40.71625, 98.20086",Integer.id.magna@ornare.edu,453983 411386 1763,581,"Mar 14, 1955" 
Ryder Pittman,3531 Sollicitudin Avenue,Benalla,7451,Victoria,"-67.15184, 30.44435",dui.in@at.ca,5226503843088014,604,"Jul 30, 1961" 
Lucian Gamble,4350 Rutrum Avenue,Wollongong,7032,NSW,"57.46839, -75.31381",ultrices.posuere.cubilia@luctusfelis.edu,555470 8535634437,442,"Apr 8, 1944" 
Noah Wright,639-6208 Accumsan Road,Broken Hill,4237,NSW,"-77.50381, -165.82197",Sed.nunc.est@Proindolor.net,4539800485933,428,"Jan 31, 1945" 
Byron Tanner,Ap #829-1973 Nascetur St.,Wodonga,3234,VIC,"-2.11529, -10.16608",massa.lobortis.ultrices@pede.co.uk,518044 7758600880,633,"Jan 20, 1988" 
Dante Horne,Ap #332-3256 Scelerisque Avenue,Caloundra,7794,Queensland,"-12.14223, 144.55362",ullamcorper.magna.Sed@semperegestasurna.edu,512865 0790401325,752,"Nov 7, 1990" 
Wallace Henry,"Ap #901-8734 Tincidunt, St.",Armadale,2242,WA,"50.15791, -179.28932",non.quam.Pellentesque@sed.com,448 56659 48852 583,212,"Feb 19, 1972" 
Austin Raymond,5604 Arcu. Rd.,Wollongong,3639,NSW,"82.41066, 72.01152",porttitor.eros.nec@Donec.org,5316 9768 0907 2837,258,"Jul 14, 1993" 
Neville Henson,Ap #776-1090 Ipsum St.,Sale,7990,Victoria,"62.50753, 26.09047",mi.ac@ultricies.co.uk,545486 5650957869,173,"Apr 19, 1988" 
Warren Raymond,8416 Arcu. St.,Port Pirie,9456,SA,"84.88475, 44.59335",eget@euismod.org,512 59645 50159 343,471,"Jan 12, 1950" 
Keith Wilkinson,5442 Nulla Av.,Melbourne,8563,Victoria,"-17.7485, 117.66367",mollis.Duis.sit@Etiamimperdiet.com,5497677685892634,924,"May 11, 1940" 
Drake Carlson,Ap #973-3515 Enim Street,Bairnsdale,2971,VIC,"-87.78489, 98.414",at.nisi@eratvelpede.net,5116329932956140,851,"Oct 1, 1961" 
Fulton Price,Ap #697-4435 Sagittis Street,Geelong,9625,Victoria,"71.93291, 38.90297",ultricies.sem@nonnisi.co.uk,541 91115 62729 755,440,"Jan 27, 1967" 
Martin Newman,Ap #392-5123 Auctor Rd.,Nedlands,8070,Western Australia,"22.10673, 106.5894",consectetuer.adipiscing@sodalesat.edu,5362 3323 0986 3767,853,"Nov 22, 2003"